2024-047A               
1 59224U 24047A   24075.19096337  .00007657  00000+0  61913-3 0  9992
2 59224  97.5570  44.5071 0018777 357.2255   2.8862 14.99924002   384
2024-047B               
1 59225U 24047B   24073.40298840  .00006258  00000+0  49851-3 0  9991
2 59225  97.5555  42.7685 0017421 355.0048  78.4990 15.00590091   112
