OBJECT_NAME,OBJECT_ID,EPOCH,MEAN_MOTION,ECCENTRICITY,INCLINATION,RA_OF_ASC_NODE,ARG_OF_PERICENTER,MEAN_ANOMALY,EPHEMERIS_TYPE,CLASSIFICATION_TYPE,NORAD_CAT_ID,ELEMENT_SET_NO,REV_AT_EPOCH,BSTAR,MEAN_MOTION_DOT,MEAN_MOTION_DDOT
2024-047A,2024-047A,2024-03-15T04:34:59.235168,14.99924002,0.0018777,97.557,44.5071,357.2255,2.8862,0,U,59224,999,38,0.00061913,7.657e-05,0
2024-047B,2024-047B,2024-03-13T09:40:18.197760,15.00590091,0.0017421,97.5555,42.7685,355.0048,78.499,0,U,59225,999,11,0.00049851,6.258e-05,0
